[{"OBJECT_NAME":"STARLINK-5994","OBJECT_ID":"2023-064K","EPOCH":"2026-03-09T14:38:24.016416","MEAN_MOTION":14.98326692,"ECCENTRICITY":0.0003007,"INCLINATION":70.0007,"RA_OF_ASC_NODE":144.679,"ARG_OF_PERICENTER":269.9767,"MEAN_ANOMALY":90.1047,"EPHEMERIS_TYPE":0,"CLASSIFICATION_TYPE":"U","NORAD_CAT_ID":56457,"ELEMENT_SET_NO":999,"REV_AT_EPOCH":15523,"BSTAR":-5.1382e-5,"MEAN_MOTION_DOT":-7.06e-6,"MEAN_MOTION_DDOT":0},{"OBJECT_NAME":"CZ-6A DEB","OBJECT_ID":"2024-140EZ","EPOCH":"2026-03-09T16:13:02.096544","MEAN_MOTION":15.06200416,"ECCENTRICITY":0.00757943,"INCLINATION":89.319,"RA_OF_ASC_NODE":303.8689,"ARG_OF_PERICENTER":93.3463,"MEAN_ANOMALY":267.6449,"EPHEMERIS_TYPE":0,"CLASSIFICATION_TYPE":"U","NORAD_CAT_ID":60774,"ELEMENT_SET_NO":999,"REV_AT_EPOCH":8499,"BSTAR":0.003121721,"MEAN_MOTION_DOT":0.00049072,"MEAN_MOTION_DDOT":0}]
